{
  "type": "FeatureCollection",
  "features": [
    {
      "type": "Feature",
      "properties": {
        "norad_id": 66921,
        "name": "HULIANWANG DIGUI-111",
        "group": "last-30-days",
        "lat": 20.230730889254446,
        "lon": 131.34643433566944,
        "alt_km": 870.9361344351119,
        "timestamp": "2025-12-13T16:48:31.467890+00:00",
        "meta_object_name": "HULIANWANG DIGUI-111",
        "meta_object_id": "2025-285G",
        "meta_epoch": "2025-12-12T23:37:19.072128",
        "meta_mean_motion": 14.05885022,
        "meta_eccentricity": 0.00069843,
        "meta_inclination": 50.0109,
        "meta_ra_of_asc_node": 116.2557,
        "meta_arg_of_pericenter": 295.898,
        "meta_mean_anomaly": 64.1205,
        "meta_ephemeris_type": 0,
        "meta_classification_type": "U",
        "meta_norad_cat_id": 66921,
        "meta_element_set_no": 999,
        "meta_rev_at_epoch": 94,
        "meta_bstar": 0.00018406097,
        "meta_mean_motion_dot": 1.51e-06,
        "meta_mean_motion_ddot": 0,
        "tle_line1": "1 66921U 25285G   25346.98424852  .00000151  00000+0  18406-3 0  9996",
        "tle_line2": "2 66921  50.0109 116.2557 0006984 295.8980  64.1205 14.05885022   942"
      },
      "geometry": {
        "type": "Point",
        "coordinates": [
          131.34643433566944,
          20.230730889254446
        ]
      }
    },
    {
      "type": "Feature",
      "properties": {
        "norad_id": 66922,
        "name": "HULIANWANG DIGUI-112",
        "group": "last-30-days",
        "lat": 22.42109565593577,
        "lon": 133.581244138208,
        "alt_km": 869.9171796381361,
        "timestamp": "2025-12-13T16:48:31.467900+00:00",
        "meta_object_name": "HULIANWANG DIGUI-112",
        "meta_object_id": "2025-285H",
        "meta_epoch": "2025-12-12T21:54:11.608704",
        "meta_mean_motion": 14.06000264,
        "meta_eccentricity": 0.00069381,
        "meta_inclination": 50.0083,
        "meta_ra_of_asc_node": 116.539,
        "meta_arg_of_pericenter": 301.8744,
        "meta_mean_anomaly": 58.1486,
        "meta_ephemeris_type": 0,
        "meta_classification_type": "U",
        "meta_norad_cat_id": 66922,
        "meta_element_set_no": 999,
        "meta_rev_at_epoch": 93,
        "meta_bstar": 2.241994e-06,
        "meta_mean_motion_dot": -1.49e-06,
        "meta_mean_motion_ddot": 0,
        "tle_line1": "1 66922U 25285H   25346.91263436 -.00000149  00000+0  22420-5 0  9990",
        "tle_line2": "2 66922  50.0083 116.5390 0006938 301.8744  58.1486 14.06000264   938"
      },
      "geometry": {
        "type": "Point",
        "coordinates": [
          133.581244138208,
          22.42109565593577
        ]
      }
    },
    {
      "type": "Feature",
      "properties": {
        "norad_id": 66923,
        "name": "HULIANWANG DIGUI-113",
        "group": "last-30-days",
        "lat": 23.51354929544877,
        "lon": 134.7370721366251,
        "alt_km": 870.0873786012426,
        "timestamp": "2025-12-13T16:48:31.467909+00:00",
        "meta_object_name": "HULIANWANG DIGUI-113",
        "meta_object_id": "2025-285J",
        "meta_epoch": "2025-12-12T21:53:48.246144",
        "meta_mean_motion": 14.06056501,
        "meta_eccentricity": 0.00054079,
        "meta_inclination": 50.0081,
        "meta_ra_of_asc_node": 116.5386,
        "meta_arg_of_pericenter": 296.8506,
        "meta_mean_anomaly": 63.1846,
        "meta_ephemeris_type": 0,
        "meta_classification_type": "U",
        "meta_norad_cat_id": 66923,
        "meta_element_set_no": 999,
        "meta_rev_at_epoch": 93,
        "meta_bstar": 0.00018439421,
        "meta_mean_motion_dot": 1.52e-06,
        "meta_mean_motion_ddot": 0,
        "tle_line1": "1 66923U 25285J   25346.91236396  .00000152  00000+0  18439-3 0  9992",
        "tle_line2": "2 66923  50.0081 116.5386 0005407 296.8506  63.1846 14.06056501   932"
      },
      "geometry": {
        "type": "Point",
        "coordinates": [
          134.7370721366251,
          23.51354929544877
        ]
      }
    },
    {
      "type": "Feature",
      "properties": {
        "norad_id": 66924,
        "name": "CZ-8A R/B",
        "group": "last-30-days",
        "lat": -32.42438010454901,
        "lon": 79.84019078474851,
        "alt_km": 870.7086048044384,
        "timestamp": "2025-12-13T16:48:31.467930+00:00",
        "meta_object_name": "CZ-8A R/B",
        "meta_object_id": "2025-285K",
        "meta_epoch": "2025-12-12T20:54:00.305568",
        "meta_mean_motion": 14.30501963,
        "meta_eccentricity": 0.0119323,
        "meta_inclination": 50.0065,
        "meta_ra_of_asc_node": 115.5964,
        "meta_arg_of_pericenter": 107.1996,
        "meta_mean_anomaly": 254.2022,
        "meta_ephemeris_type": 0,
        "meta_classification_type": "U",
        "meta_norad_cat_id": 66924,
        "meta_element_set_no": 999,
        "meta_rev_at_epoch": 94,
        "meta_bstar": 9.3987023e-05,
        "meta_mean_motion_dot": 9.9e-07,
        "meta_mean_motion_ddot": 0,
        "tle_line1": "1 66924U 25285K   25346.87083687  .00000099  00000+0  93987-4 0  9993",
        "tle_line2": "2 66924  50.0065 115.5964 0119323 107.1996 254.2022 14.30501963   940"
      },
      "geometry": {
        "type": "Point",
        "coordinates": [
          79.84019078474851,
          -32.42438010454901
        ]
      }
    },
    {
      "type": "Feature",
      "properties": {
        "norad_id": 66925,
        "name": "STARLINK-35945",
        "group": "last-30-days",
        "lat": -39.36040370406718,
        "lon": -96.1979958762912,
        "alt_km": 292.6064035929321,
        "timestamp": "2025-12-13T16:48:31.467942+00:00",
        "meta_object_name": "STARLINK-35945",
        "meta_object_id": "2025-286A",
        "meta_epoch": "2025-12-12T20:00:01.999872",
        "meta_mean_motion": 15.97094927,
        "meta_eccentricity": 5.536e-05,
        "meta_inclination": 53.1575,
        "meta_ra_of_asc_node": 50.2927,
        "meta_arg_of_pericenter": 62.0146,
        "meta_mean_anomaly": 225.5283,
        "meta_ephemeris_type": 0,
        "meta_classification_type": "U",
        "meta_norad_cat_id": 66925,
        "meta_element_set_no": 999,
        "meta_rev_at_epoch": 200,
        "meta_bstar": -0.0025869454,
        "meta_mean_motion_dot": -0.01153772,
        "meta_mean_motion_ddot": 0.00041744107,
        "tle_line1": "1 66925U 25286A   25346.83335648 -.01153772  41744-3 -25869-2 0  9994",
        "tle_line2": "2 66925  53.1575  50.2927 0000553  62.0146 225.5283 15.97094927  2005"
      },
      "geometry": {
        "type": "Point",
        "coordinates": [
          -96.1979958762912,
          -39.36040370406718
        ]
      }
    },
    {
      "type": "Feature",
      "properties": {
        "norad_id": 66926,
        "name": "STARLINK-35942",
        "group": "last-30-days",
        "lat": -41.23894798060229,
        "lon": -93.06365816617576,
        "alt_km": 292.3986144399705,
        "timestamp": "2025-12-13T16:48:31.467955+00:00",
        "meta_object_name": "STARLINK-35942",
        "meta_object_id": "2025-286B",
        "meta_epoch": "2025-12-12T20:00:01.999872",
        "meta_mean_motion": 15.9729774,
        "meta_eccentricity": 7.23e-05,
        "meta_inclination": 53.1574,
        "meta_ra_of_asc_node": 50.2873,
        "meta_arg_of_pericenter": 65.9398,
        "meta_mean_anomaly": 224.109,
        "meta_ephemeris_type": 0,
        "meta_classification_type": "U",
        "meta_norad_cat_id": 66926,
        "meta_element_set_no": 999,
        "meta_rev_at_epoch": 200,
        "meta_bstar": -0.00263886,
        "meta_mean_motion_dot": -0.01189773,
        "meta_mean_motion_ddot": 0.00044233542,
        "tle_line1": "1 66926U 25286B   25346.83335648 -.01189773  44234-3 -26389-2 0  9990",
        "tle_line2": "2 66926  53.1574  50.2873 0000723  65.9398 224.1090 15.97297740  2004"
      },
      "geometry": {
        "type": "Point",
        "coordinates": [
          -93.06365816617576,
          -41.23894798060229
        ]
      }
    },
    {
      "type": "Feature",
      "properties": {
        "norad_id": 66927,
        "name": "STARLINK-35943",
        "group": "last-30-days",
        "lat": -42.03856754598373,
        "lon": -91.62580273112287,
        "alt_km": 292.2391256882256,
        "timestamp": "2025-12-13T16:48:31.467966+00:00",
        "meta_object_name": "STARLINK-35943",
        "meta_object_id": "2025-286C",
        "meta_epoch": "2025-12-12T20:00:01.999872",
        "meta_mean_motion": 15.97379596,
        "meta_eccentricity": 7.142e-05,
        "meta_inclination": 53.1574,
        "meta_ra_of_asc_node": 50.2852,
        "meta_arg_of_pericenter": 61.5013,
        "meta_mean_anomaly": 229.6547,
        "meta_ephemeris_type": 0,
        "meta_classification_type": "U",
        "meta_norad_cat_id": 66927,
        "meta_element_set_no": 999,
        "meta_rev_at_epoch": 200,
        "meta_bstar": -0.0026435611,
        "meta_mean_motion_dot": -0.01197214,
        "meta_mean_motion_ddot": 0.0004477569,
        "tle_line1": "1 66927U 25286C   25346.83335648 -.01197214  44776-3 -26436-2 0  9994",
        "tle_line2": "2 66927  53.1574  50.2852 0000714  61.5013 229.6547 15.97379596  2005"
      },
      "geometry": {
        "type": "Point",
        "coordinates": [
          -91.62580273112287,
          -42.03856754598373
        ]
      }
    }
  ]
}